1 42859U 17042AL  20043.70359837  .00004247  00000-0  10642-3 0  9996
2 42859  96.9107 278.5503 0011106  74.3508 285.8964 15.40502915144742
1 42859U 17042AL  20043.89846864  .00004321  00000-0  10823-3 0  9991
2 42859  96.9105 278.7346 0011120  73.8642 286.3829 15.40503759144772
1 42859U 17042AL  20044.28820792  .00003708  00000-0  93152-4 0  9992
2 42859  96.9105 279.1031 0011104  72.6739 287.5722 15.40505372144839
1 42859U 17042AL  20044.74290281  .00003748  00000-0  94111-4 0  9997
2 42859  96.9105 279.5330 0011087  71.2850 288.9600 15.40509000144904
1 42859U 17042AL  20045.58733429  .00003055  00000-0  77052-4 0  9992
2 42859  96.9105 280.3313 0011062  68.6323 291.6104 15.40513169145039
1 42859U 17042AL  20045.91211571  .00002973  00000-0  75027-4 0  9996
2 42859  96.9106 280.6382 0011042  67.5877 292.6539 15.40514190145082
1 42859U 17042AL  20046.17194011  .00002735  00000-0  69182-4 0  9995
2 42859  96.9107 280.8839 0011032  66.7870 293.4538 15.40515144145128
1 42859U 17042AL  20046.56167668  .00002358  00000-0  59896-4 0  9998
2 42859  96.9106 281.2523 0011016  65.6096 294.6300 15.40515965145189
1 42859U 17042AL  20046.88645626  .00002825  00000-0  71393-4 0  9993
2 42859  96.9107 281.5594 0010993  64.6205 295.6180 15.40519066145234
1 42859U 17042AL  20047.40610411  .00002445  00000-0  62045-4 0  9998
2 42859  96.9107 282.0507 0010975  63.1309 297.1059 15.40519941145316
1 42859U 17042AL  20047.53601586  .00002473  00000-0  62713-4 0  9998
2 42859  96.9107 282.1735 0010969  62.7255 297.5109 15.40520613145338
1 42859U 17042AL  20048.38044083  .00002569  00000-0  65083-4 0  9994
2 42859  96.9108 282.9718 0010920  60.1627 300.0704 15.40524634145462
1 42859U 17042AL  20048.44539650  .00002577  00000-0  65282-4 0  9990
2 42859  96.9108 283.0332 0010916  59.9676 300.2653 15.40524970145470
1 42859U 17042AL  20048.77017444  .00002763  00000-0  69834-4 0  9992
2 42859  96.9108 283.3403 0010904  58.9311 301.3006 15.40527204145527
1 42859U 17042AL  20049.28981865  .00002871  00000-0  72497-4 0  9995
2 42859  96.9108 283.8315 0010888  57.3063 302.9233 15.40529992145606
1 42859U 17042AL  20049.61459545  .00003099  00000-0  78088-4 0  9992
2 42859  96.9108 284.1386 0010870  56.2726 303.9556 15.40532546145656
1 42859U 17042AL  20049.87441621  .00003437  00000-0  86402-4 0  9991
2 42859  96.9108 284.3842 0010871  55.4964 304.7309 15.40535277145694
1 42859U 17042AL  20050.58892077  .00005724  00000-0  14258-3 0  9996
2 42859  96.9109 285.0597 0010819  53.3066 306.9174 15.40546144145804
1 42859U 17042AL  20050.78378511  .00005742  00000-0  14301-3 0  9999
2 42859  96.9109 285.2439 0010804  52.7486 307.4745 15.40547981145837
1 42859U 17042AL  20050.84874026  .00005378  00000-0  13407-3 0  9999
2 42859  96.9109 285.3053 0010797  52.5549 307.6680 15.40547396145840
1 42859U 17042AL  20051.56324061  .00005099  00000-0  12720-3 0  9995
2 42859  96.9108 285.9808 0010750  50.3100 309.9094 15.40553708145951
1 42859U 17042AL  20051.88801229  .00004701  00000-0  11740-3 0  9996
2 42859  96.9107 286.2880 0010722  49.3470 310.8708 15.40556473146003
1 42859U 17042AL  20052.08287499  .00004652  00000-0  11620-3 0  9998
2 42859  96.9107 286.4722 0010703  48.7303 311.4865 15.40558518146033
1 42859U 17042AL  20052.40764553  .00004434  00000-0  11083-3 0  9996
2 42859  96.9107 286.7793 0010680  47.7688 312.4464 15.40561306146083
1 42859U 17042AL  20052.86232378  .00003889  00000-0  97422-4 0  9996
2 42859  96.9105 287.2091 0010643  46.3135 313.8993 15.40563997146157
1 42859U 17042AL  20053.12213941  .00003750  00000-0  94002-4 0  9999
2 42859  96.9105 287.4548 0010624  45.5074 314.7040 15.40565989146198
1 42859U 17042AL  20053.31700111  .00003991  00000-0  99934-4 0  9996
2 42859  96.9104 287.6390 0010618  44.9163 315.2942 15.40567865146225
1 42859U 17042AL  20053.77167725  .00003921  00000-0  98185-4 0  9994
2 42859  96.9103 288.0689 0010585  43.4923 316.7157 15.40571451146298
1 42859U 17042AL  20054.48616682  .00003470  00000-0  87099-4 0  9995
2 42859  96.9100 288.7445 0010515  41.1894 319.0145 15.40575587146407
1 42859U 17042AL  20054.61607379  .00003333  00000-0  83744-4 0  9994
2 42859  96.9100 288.8673 0010500  40.7530 319.4501 15.40576231146426
1 42859U 17042AL  20054.87588721  .00003510  00000-0  88093-4 0  9990
2 42859  96.9099 289.1129 0010481  39.9415 320.2602 15.40578609146460
1 42859U 17042AL  20055.07074717  .00003469  00000-0  87062-4 0  9996
2 42859  96.9098 289.2972 0010465  39.3124 320.8881 15.40580029146496
1 42859U 17042AL  20055.65532629  .00003203  00000-0  80546-4 0  9997
2 42859  96.9096 289.8499 0010412  37.4427 322.7544 15.40583340146587
1 42859U 17042AL  20055.85018557  .00003381  00000-0  84913-4 0  9997
2 42859  96.9096 290.0341 0010390  36.8567 323.3393 15.40585026146616
1 42859U 17042AL  20056.36981010  .00003144  00000-0  79083-4 0  9996
2 42859  96.9095 290.5253 0010341  35.0995 325.0932 15.40587599146697
1 42859U 17042AL  20056.69457490  .00003119  00000-0  78463-4 0  9995
2 42859  96.9094 290.8323 0010312  34.0668 326.1240 15.40589525146742
1 42859U 17042AL  20056.88943367  .00003035  00000-0  76397-4 0  9990
2 42859  96.9094 291.0166 0010295  33.4463 326.7433 15.40590377146776
1 42859U 17042AL  20057.92867802  .00002815  00000-0  70978-4 0  9999
2 42859  96.9091 291.9991 0010197  30.1306 330.0527 15.40595539146934
1 42859U 17042AL  20058.77306140  .00002313  00000-0  58658-4 0  9990
2 42859  96.9089 292.7973 0010101  27.3156 332.8621 15.40598563147066
1 42859U 17042AL  20059.35763355  .00002655  00000-0  67043-4 0  9997
2 42859  96.9088 293.3499 0010040  25.4189 334.7551 15.40602266147151
1 42859U 17042AL  20059.55249051  .00002767  00000-0  69789-4 0  9994
2 42859  96.9088 293.5341 0010023  24.7237 335.4489 15.40603654147189
1 42859U 17042AL  20059.74734737  .00002832  00000-0  71379-4 0  9996
2 42859  96.9088 293.7183 0010004  24.0734 336.0980 15.40604881147219
1 42859U 17042AL  20060.39686935  .00003315  00000-0  83225-4 0  9995
2 42859  96.9088 294.3323 0009921  21.9174 338.2496 15.40609591147312
1 42859U 17042AL  20060.78658163  .00003432  00000-0  86092-4 0  9995
2 42859  96.9088 294.7006 0009878  20.5897 339.5746 15.40612154147379
1 42859U 17042AL  20061.56600389  .00003780  00000-0  94607-4 0  9996
2 42859  96.9088 295.4373 0009786  17.9814 342.1778 15.40618011147497
1 42859U 17042AL  20061.89076263  .00003708  00000-0  92851-4 0  9999
2 42859  96.9089 295.7443 0009750  16.9399 343.2172 15.40619730147542
1 42859U 17042AL  20062.15056903  .00003819  00000-0  95559-4 0  9999
2 42859  96.9089 295.9900 0009724  16.0882 344.0673 15.40621833147587
1 42859U 17042AL  20062.54027862  .00003533  00000-0  88553-4 0  9993
2 42859  96.9088 296.3583 0009670  14.7692 345.3836 15.40623253147642
1 42859U 17042AL  20062.86503597  .00003593  00000-0  90020-4 0  9990
2 42859  96.9089 296.6653 0009651  13.6706 346.4801 15.40625479147698
1 42859U 17042AL  20063.44959801  .00003309  00000-0  83040-4 0  9997
2 42859  96.9089 297.2178 0009582  11.6428 348.5040 15.40628462147782
1 42859U 17042AL  20063.57950037  .00003385  00000-0  84901-4 0  9994
2 42859  96.9089 297.3405 0009569  11.1728 348.9730 15.40629663147806
1 42859U 17042AL  20063.83930480  .00003560  00000-0  89193-4 0  9996
2 42859  96.9090 297.5860 0009532  10.3892 349.7550 15.40631833147843
1 42859U 17042AL  20064.42386288  .00004280  00000-0  10681-3 0  9998
2 42859  96.9090 298.1386 0009434   8.3103 351.8299 15.40638206147931
1 42859U 17042AL  20064.68366512  .00005452  00000-0  13552-3 0  9996
2 42859  96.9090 298.3842 0009411   7.3911 352.7473 15.40643805147970
1 42859U 17042AL  20064.68366549  .00004918  00000-0  12245-3 0  9990
2 42859  96.9090 298.3842 0009423   7.3289 352.8094 15.40642299147977
1 42859U 17042AL  20065.33317062  .00005404  00000-0  13433-3 0  9990
2 42859  96.9090 298.9981 0009333   5.1029 355.0312 15.40649656148079
1 42859U 17042AL  20066.11257453  .00004689  00000-0  11680-3 0  9990
2 42859  96.9091 299.7350 0009246   2.3198 357.8090 15.40655114148190
1 42859U 17042AL  20066.43732564  .00003757  00000-0  93962-4 0  9995
2 42859  96.9090 300.0420 0009198   1.2023 358.9245 15.40655278148245
1 42859U 17042AL  20066.69712589  .00003722  00000-0  93102-4 0  9996
2 42859  96.9089 300.2876 0009167   0.2536 359.8714 15.40657338148288
1 42859U 17042AL  20067.15177567  .00003731  00000-0  93304-4 0  9993
2 42859  96.9088 300.7174 0009117 358.6242   1.4979 15.40660814148356
1 42859U 17042AL  20067.34662556  .00003083  00000-0  77435-4 0  9998
2 42859  96.9087 300.9016 0009089 357.9085   2.2123 15.40660402148383
1 42859U 17042AL  20067.86622369  .00003504  00000-0  87730-4 0  9990
2 42859  96.9085 301.3928 0009035 356.0287   4.0888 15.40665178148465
1 42859U 17042AL  20068.32087164  .00002921  00000-0  73450-4 0  9996
2 42859  96.9084 301.8226 0008970 354.3718   5.7427 15.40666332148535
1 42859U 17042AL  20068.58066968  .00003120  00000-0  78311-4 0  9996
2 42859  96.9083 302.0682 0008940 353.3714   6.7414 15.40668841148573
1 42859U 17042AL  20069.42501257  .00003106  00000-0  77971-4 0  9990
2 42859  96.9081 302.8664 0008832 350.2697   9.8378 15.40673985148708
1 42859U 17042AL  20069.61986030  .00003231  00000-0  81010-4 0  9995
2 42859  96.9080 303.0506 0008813 349.5259  10.5804 15.40675753148730
1 42859U 17042AL  20070.20440315  .00003116  00000-0  78198-4 0  9998
2 42859  96.9079 303.6032 0008734 347.3692  12.7335 15.40679111148822
1 42859U 17042AL  20070.65904675  .00003213  00000-0  80573-4 0  9999
2 42859  96.9077 304.0329 0008687 345.6263  14.4736 15.40682126148897
1 42859U 17042AL  20070.91884235  .00003396  00000-0  85039-4 0  9991
2 42859  96.9077 304.2784 0008653 344.6445  15.4538 15.40684423148936
1 42859U 17042AL  20071.17863768  .00003321  00000-0  83209-4 0  9993
2 42859  96.9075 304.5241 0008604 343.7101  16.3869 15.40685834148978
1 42859U 17042AL  20071.69822598  .00004991  00000-0  12405-3 0  9999
2 42859  96.9072 305.0153 0008547 341.7090  18.3849 15.40694368149056
